NORAD_CAT_ID,OBJECT_NAME,OBJECT_TYPE,EPOCH,MEAN_MOTION,ECCENTRICITY,INCLINATION,RA_OF_ASC_NODE,ARG_OF_PERICENTER,MEAN_ANOMALY,BSTAR,MEAN_MOTION_DOT,MEAN_MOTION_DDOT,TLE_LINE0,TLE_LINE1,TLE_LINE2,SEMIMAJOR_AXIS,PERIOD,APOGEE,PERIGEE,DECAYED
56498.0,STARLINK-5522,PAYLOAD,2024-01-10 04:26:58,14.98333549,0.0002651,69.9997,295.0212,266.872,93.2135,2.9602e-05,2.6e-06,0.0,0 STARLINK-5522,1 56498U 23064BC  24010.18539507  .00000260  00000-0  29602-4 0  9993,2 56498  69.9997 295.0212 0002651 266.8720  93.2135 14.98333549 38338,6950.182,96.107,573.889,570.204,0.0
56498.0,STARLINK-5522,PAYLOAD,2024-01-11 02:52:51,14.98325543,0.0002504,70.0001,292.6645,254.1811,105.9072,1.5745e-07,-9.1e-07,0.0,0 STARLINK-5522,1 56498U 23064BC  24011.12004169 -.00000091  00000-0  15745-6 0  9997,2 56498  70.0001 292.6645 0002504 254.1811 105.9072 14.98325543 38479,6950.207,96.107,573.812,570.331,0.0
56498.0,STARLINK-5522,PAYLOAD,2024-01-11 04:28:59,14.98327731,0.000251,70.0001,292.4966,254.6982,105.39,-1.2574e-05,-2.43e-06,0.0,0 STARLINK-5522,1 56498U 23064BC  24011.18680077 -.00000243  00000-0 -12574-4 0  9996,2 56498  70.0001 292.4966 0002510 254.6982 105.3900 14.98327731 38121,6950.2,96.107,573.809,570.32,0.0
56498.0,STARLINK-5522,PAYLOAD,2024-01-11 22:06:28,14.98331384,0.0002626,69.9999,290.6454,257.9662,102.1203,2.1831e-06,-6.7e-07,0.0,0 STARLINK-5522,1 56498U 23064BC  24011.92115754 -.00000067  00000-0  21831-5 0  9993,2 56498  69.9999 290.6454 0002626 257.9662 102.1203 14.98331384 38237,6950.189,96.107,573.879,570.228,0.0
56498.0,STARLINK-5522,PAYLOAD,2024-01-12 02:54:52,14.98333353,0.0002644,69.9999,290.14,259.6509,100.4352,2.9005e-05,2.53e-06,0.0,0 STARLINK-5522,1 56498U 23064BC  24012.12143528  .00000253  00000-0  29005-4 0  9992,2 56498  69.9999 290.1400 0002644 259.6509 100.4352 14.98333353 38629,6950.183,96.107,573.885,570.21,0.0
56498.0,STARLINK-5522,PAYLOAD,2024-01-12 04:30:59,14.9834832,0.0002538,70.0,289.9718,260.6976,99.3896,-0.00021341,-2.64e-05,0.0,0 STARLINK-5522,1 56498U 23064BC  24012.18819135 -.00002640  00000-0 -21341-3 0  9990,2 56498  70.0000 289.9718 0002538 260.6976  99.3896 14.98348320 38635,6950.136,96.106,573.765,570.237,0.0
56498.0,STARLINK-5522,PAYLOAD,2024-01-12 18:56:13,14.98327538,0.000257,70.0,288.4575,255.6628,104.4246,-1.0776e-06,-1.06e-06,0.0,0 STARLINK-5522,1 56498U 23064BC  24012.78903957 -.00000106  00000-0 -10776-5 0  9999,2 56498  70.0000 288.4575 0002570 255.6628 104.4246 14.98327538 38729,6950.201,96.107,573.852,570.279,0.0
56498.0,STARLINK-5522,PAYLOAD,2024-01-12 22:08:29,14.98327117,0.0002591,70.0,288.1211,255.0497,105.0375,-7.7664e-06,-1.86e-06,0.0,0 STARLINK-5522,1 56498U 23064BC  24012.92256010 -.00000186  00000-0 -77664-5 0  9993,2 56498  70.0000 288.1211 0002591 255.0497 105.0375 14.98327117 38389,6950.202,96.107,573.868,570.266,0.0
56498.0,STARLINK-5522,PAYLOAD,2024-01-13 04:33:01,14.98327829,0.0002583,69.9999,287.4477,254.6404,105.447,5.5359e-07,-8.6e-07,0.0,0 STARLINK-5522,1 56498U 23064BC  24013.18959972 -.00000086  00000-0  55359-6 0  9995,2 56498  69.9999 287.4477 0002583 254.6404 105.4470 14.98327829 38428,6950.2,96.107,573.86,570.269,0.0
56498.0,STARLINK-5522,PAYLOAD,2024-01-13 18:58:13,14.9833099,0.0002486,69.9999,285.9314,259.5059,100.582,-1.9798e-05,-3.29e-06,0.0,0 STARLINK-5522,1 56498U 23064BC  24013.79043869 -.00000329  00000-0 -19798-4 0  9997,2 56498  69.9999 285.9314 0002486 259.5059 100.5820 14.98330990 38870,6950.19,96.107,573.783,570.327,0.0
56498.0,STARLINK-5522,PAYLOAD,2024-01-14 04:35:01,14.98333881,0.0002439,70.0,284.921,255.9699,104.1189,2.1129e-05,1.59e-06,0.0,0 STARLINK-5522,1 56498U 23064BC  24014.19099495  .00000159  00000-0  21129-4 0  9998,2 56498  70.0000 284.9210 0002439 255.9699 104.1189 14.98333881 38575,6950.181,96.107,573.741,570.351,0.0
56498.0,STARLINK-5522,PAYLOAD,2024-01-14 19:00:14,14.98326923,0.0002409,69.9999,283.4054,251.4448,108.6449,3.0707e-05,2.73e-06,0.0,0 STARLINK-5522,1 56498U 23064BC  24014.79183818  .00000273  00000-0  30707-4 0  9996,2 56498  69.9999 283.4054 0002409 251.4448 108.6449 14.98326923 39027,6950.202,96.107,573.742,570.393,0.0
56498.0,STARLINK-5522,PAYLOAD,2024-01-14 22:12:31,14.98317433,0.0002608,70.0,283.0686,253.8866,106.2006,0.00017644,2.012e-05,0.0,0 STARLINK-5522,1 56498U 23064BC  24014.92535964  .00002012  00000-0  17644-3 0  9991,2 56498  70.0000 283.0686 0002608 253.8866 106.2006 14.98317433 38681,6950.232,96.108,573.909,570.284,0.0
56498.0,STARLINK-5522,PAYLOAD,2024-01-15 03:00:54,14.98328138,0.0002518,70.0004,282.5641,252.8134,107.2749,7.052e-05,7.49e-06,0.0,0 STARLINK-5522,1 56498U 23064BC  24015.12563655  .00000749  00000-0  70520-4 0  9990,2 56498  70.0004 282.5641 0002518 252.8134 107.2749 14.98328138 38710,6950.199,96.107,573.814,570.314,0.0
56498.0,STARLINK-5522,PAYLOAD,2024-01-15 19:02:15,14.98326926,0.0002383,70.0011,280.883,246.9536,113.1372,-1.0317e-05,-2.16e-06,0.0,0 STARLINK-5522,1 56498U 23064BC  24015.79323967 -.00000216  00000-0 -10317-4 0  9992,2 56498  70.0011 280.8830 0002383 246.9536 113.1372 14.98326926 39171,6950.202,96.107,573.724,570.411,0.0
56498.0,STARLINK-5522,PAYLOAD,2024-01-15 20:38:23,14.98328404,0.0002547,70.0009,280.7143,250.3956,109.6928,-4.0395e-05,-5.75e-06,0.0,0 STARLINK-5522,1 56498U 23064BC  24015.85999958 -.00000575  00000-0 -40395-4 0  9995,2 56498  70.0009 280.7143 0002547 250.3956 109.6928 14.98328404 38822,6950.198,96.107,573.833,570.293,0.0
56498.0,STARLINK-5522,PAYLOAD,2024-01-16 01:26:48,14.98347683,0.0002334,70.0007,280.2091,240.3908,119.7019,-0.00047972,-5.815e-05,0.0,0 STARLINK-5522,1 56498U 23064BC  24016.06027881 -.00005815  00000-0 -47972-3 0  9995,2 56498  70.0007 280.2091 0002334 240.3908 119.7019 14.98347683 39214,6950.138,96.106,573.625,570.381,0.0
56498.0,STARLINK-5522,PAYLOAD,2024-01-16 19:04:16,14.98329578,0.0002687,69.9998,278.3573,259.0142,101.0715,1.884e-05,1.32e-06,0.0,0 STARLINK-5522,1 56498U 23064BC  24016.79463855  .00000132  00000-0  18840-4 0  9998,2 56498  69.9998 278.3573 0002687 259.0142 101.0715 14.98329578 39323,6950.194,96.107,573.927,570.192,0.0
56498.0,STARLINK-5522,PAYLOAD,2024-01-16 22:16:32,14.98330335,0.0002703,70.0,278.0201,260.8839,99.2014,1.9919e-05,1.45e-06,0.0,0 STARLINK-5522,1 56498U 23064BC  24016.92815804  .00000145  00000-0  19919-4 0  9990,2 56498  70.0000 278.0201 0002703 260.8839  99.2014 14.98330335 38981,6950.192,96.107,573.935,570.178,0.0
56498.0,STARLINK-5522,PAYLOAD,2024-01-17 03:04:56,14.98333113,0.0002568,70.0001,277.5155,254.9197,105.1678,6.7702e-05,7.15e-06,0.0,0 STARLINK-5522,1 56498U 23064BC  24017.12843454  .00000715  00000-0  67702-4 0  9991,2 56498  70.0001 277.5155 0002568 254.9197 105.1678 14.98333113 39019,6950.183,96.107,573.833,570.263,0.0
56498.0,STARLINK-5522,PAYLOAD,2024-01-17 19:06:17,14.98326969,0.0002514,69.9999,275.8322,255.9382,104.1498,3.8614e-05,3.68e-06,0.0,0 STARLINK-5522,1 56498U 23064BC  24017.79603853  .00000368  00000-0  38614-4 0  9995,2 56498  69.9999 275.8322 0002514 255.9382 104.1498 14.98326969 39477,6950.202,96.107,573.815,570.32,0.0
56498.0,STARLINK-5522,PAYLOAD,2024-01-17 22:18:33,14.98326558,0.0002525,69.9999,275.4951,256.7366,103.3511,3.0955e-05,2.76e-06,0.0,0 STARLINK-5522,1 56498U 23064BC  24017.92955918  .00000276  00000-0  30955-4 0  9990,2 56498  69.9999 275.4951 0002525 256.7366 103.3511 14.98326558 39138,6950.204,96.107,573.823,570.314,0.0
56498.0,STARLINK-5522,PAYLOAD,2024-01-18 03:06:58,14.98326351,0.0002538,69.9999,274.9904,256.9873,103.1002,2.3431e-05,1.87e-06,0.0,0 STARLINK-5522,1 56498U 23064BC  24018.12983991  .00000187  00000-0  23431-4 0  9997,2 56498  69.9999 274.9904 0002538 256.9873 103.1002 14.98326351 39166,6950.204,96.107,573.833,570.305,0.0
56498.0,STARLINK-5522,PAYLOAD,2024-01-18 19:08:18,14.98333994,0.0002572,69.9997,273.3059,261.5074,98.5794,-1.399e-05,-2.6e-06,0.0,0 STARLINK-5522,1 56498U 23064BC  24018.79743596 -.00000260  00000-0 -13990-4 0  9998,2 56498  69.9997 273.3059 0002572 261.5074  98.5794 14.98333994 39628,6950.181,96.107,573.833,570.258,0.0
56498.0,STARLINK-5522,PAYLOAD,2024-01-18 22:20:34,14.98333976,0.000257,69.9998,272.9692,261.4271,98.6597,-1.1551e-05,-2.31e-06,0.0,0 STARLINK-5522,1 56498U 23064BC  24018.93095553 -.00000231  00000-0 -11551-4 0  9996,2 56498  69.9998 272.9692 0002570 261.4271  98.6597 14.98333976 39287,6950.181,96.107,573.832,570.259,0.0
56498.0,STARLINK-5522,PAYLOAD,2024-01-19 03:08:58,14.98336088,0.000255,69.9999,272.4644,261.2014,98.8857,1.3613e-05,7e-07,0.0,0 STARLINK-5522,1 56498U 23064BC  24019.13123288  .00000070  00000-0  13613-4 0  9996,2 56498  69.9999 272.4644 0002550 261.2014  98.8857 14.98336088 39313,6950.174,96.107,573.811,570.267,0.0
56498.0,STARLINK-5522,PAYLOAD,2024-01-19 19:10:19,14.98327432,0.0002462,70.0001,270.781,257.0235,103.0649,1.8515e-05,1.28e-06,0.0,0 STARLINK-5522,1 56498U 23064BC  24019.79883677  .00000128  00000-0  18515-4 0  9993,2 56498  70.0001 270.7810 0002462 257.0235 103.0649 14.98327432 39777,6950.201,96.107,573.777,570.355,0.0
56498.0,STARLINK-5522,PAYLOAD,2024-01-19 22:22:35,14.98327314,0.0002466,70.0,270.4443,255.9517,104.1368,1.6699e-05,1.06e-06,0.0,0 STARLINK-5522,1 56498U 23064BC  24019.93235696  .00000106  00000-0  16699-4 0  9998,2 56498  70.0000 270.4443 0002466 255.9517 104.1368 14.98327314 39431,6950.201,96.107,573.78,570.352,0.0
56498.0,STARLINK-5522,PAYLOAD,2024-01-20 03:10:59,14.98327752,0.0002454,70.0001,269.9395,257.6972,102.3912,1.8278e-05,1.25e-06,0.0,0 STARLINK-5522,1 56498U 23064BC  24020.13263690  .00000125  00000-0  18278-4 0  9993,2 56498  70.0001 269.9395 0002454 257.6972 102.3912 14.98327752 39466,6950.2,96.107,573.77,570.359,0.0
56498.0,STARLINK-5522,PAYLOAD,2024-01-20 19:12:20,14.9833256,0.0002476,70.0001,268.2564,256.2338,103.8546,-8.0256e-06,-1.89e-06,0.0,0 STARLINK-5522,1 56498U 23064BC  24020.80023377 -.00000189  00000-0 -80256-5 0  9991,2 56498  70.0001 268.2564 0002476 256.2338 103.8546 14.98332560 39924,6950.185,96.107,573.771,570.329,0.0
